HIMAWARI-8              
1 40267U 14060A   24217.60448392 -.00000286  00000+0  00000+0 0  9997
2 40267   0.0235 158.5776 0000984  40.3918 112.9300  1.00270333 35920
